start=new Date('2022-02-25T00:00:00.000Z').valueOf();
sats=[{"LAUNCH_DATE":"2020-10-06","ELEMENT_SET_NO":"999","INCLINATION":"53.0535","NORAD_CAT_ID":"46583","MEAN_ELEMENT_THEORY":"SGP4","RA_OF_ASC_NODE":"312.7570","ECCENTRICITY":"0.00015550","MEAN_ANOMALY":"287.6952","MEAN_MOTION_DDOT":"0.0000000000000","TLE_LINE2":"2 46583  53.0535 312.7570 0001555  72.4207 287.6952 15.06386295 77369","OBJECT_ID":"2020-070BD","REF_FRAME":"TEME","ARG_OF_PERICENTER":"72.4207","TIME_SYSTEM":"UTC","REV_AT_EPOCH":"7736","EPOCH":"2022-02-24T21:22:12.157536","MEAN_MOTION_DOT":"-0.00000045","GP_ID":"196901572","EPHEMERIS_TYPE":"0","TLE_LINE1":"1 46583U 20070BD  22055.89041849 -.00000045  00000-0  15851-4 0  9996","MEAN_MOTION":"15.06386295","RCS_SIZE":"LARGE","SITE":"AFETR","PERIOD":"95.593","FILE":"3320325","PERIAPSIS":"546.179","BSTAR":"0.00001585100000","CENTER_NAME":"EARTH","CLASSIFICATION_TYPE":"U","COUNTRY_CODE":"US","OBJECT_TYPE":"PAYLOAD","APOAPSIS":"548.332","OBJECT_NAME":"STARLINK-1729","SEMIMAJOR_AXIS":"6925.391","DECAY_DATE":null},{"ECCENTRICITY":"0.00016880","RA_OF_ASC_NODE":"292.6688","MEAN_ANOMALY":"281.6785","NORAD_CAT_ID":"46584","INCLINATION":"53.0556","ELEMENT_SET_NO":"999","LAUNCH_DATE":"2020-10-06","MEAN_ELEMENT_THEORY":"SGP4","TLE_LINE1":"1 46584U 20070BE  22055.91069176  .00003907  00000-0  28100-3 0  9992","MEAN_MOTION":"15.06406964","RCS_SIZE":"LARGE","EPHEMERIS_TYPE":"0","GP_ID":"196902322","REV_AT_EPOCH":"7765","TIME_SYSTEM":"UTC","OBJECT_ID":"2020-070BE","TLE_LINE2":"2 46584  53.0556 292.6688 0001688  78.4393 281.6785 15.06406964 77654","MEAN_MOTION_DDOT":"0.0000000000000","REF_FRAME":"TEME","ARG_OF_PERICENTER":"78.4393","MEAN_MOTION_DOT":"0.00003907","EPOCH":"2022-02-24T21:51:23.768064","BSTAR":"0.00028100000000","CLASSIFICATION_TYPE":"U","CENTER_NAME":"EARTH","PERIOD":"95.592","SITE":"AFETR","PERIAPSIS":"546.023","FILE":"3320325","OBJECT_NAME":"STARLINK-1732","DECAY_DATE":null,"SEMIMAJOR_AXIS":"6925.327","COUNTRY_CODE":"US","APOAPSIS":"548.361","OBJECT_TYPE":"PAYLOAD"},{"MEAN_ANOMALY":"284.3732","RA_OF_ASC_NODE":"292.5913","ECCENTRICITY":"0.00015850","MEAN_ELEMENT_THEORY":"SGP4","LAUNCH_DATE":"2020-10-06","NORAD_CAT_ID":"46585","INCLINATION":"53.0548","ELEMENT_SET_NO":"999","GP_ID":"196901070","TLE_LINE1":"1 46585U 20070BF  22055.92912034 -.00001577  00000-0 -87043-4 0  9999","MEAN_MOTION":"15.06390690","RCS_SIZE":"LARGE","EPHEMERIS_TYPE":"0","MEAN_MOTION_DOT":"-0.00001577","EPOCH":"2022-02-24T22:17:55.997376","MEAN_MOTION_DDOT":"0.0000000000000","TLE_LINE2":"2 46585  53.0548 292.5913 0001585  75.7433 284.3732 15.06390690 77657","ARG_OF_PERICENTER":"75.7433","OBJECT_ID":"2020-070BF","REF_FRAME":"TEME","REV_AT_EPOCH":"7765","TIME_SYSTEM":"UTC","CLASSIFICATION_TYPE":"U","CENTER_NAME":"EARTH","BSTAR":"-0.00008704300000","PERIAPSIS":"546.144","FILE":"3320325","SITE":"AFETR","PERIOD":"95.593","SEMIMAJOR_AXIS":"6925.377","DECAY_DATE":null,"OBJECT_NAME":"STARLINK-1736","APOAPSIS":"548.340","OBJECT_TYPE":"PAYLOAD","COUNTRY_CODE":"US"},{"COUNTRY_CODE":"US","OBJECT_TYPE":"PAYLOAD","APOAPSIS":"548.198","OBJECT_NAME":"STARLINK-1737","DECAY_DATE":null,"SEMIMAJOR_AXIS":"6925.351","PERIOD":"95.592","SITE":"AFETR","FILE":"3320325","PERIAPSIS":"546.234","BSTAR":"0.00018720000000","CLASSIFICATION_TYPE":"U","CENTER_NAME":"EARTH","TIME_SYSTEM":"UTC","REV_AT_EPOCH":"7765","TLE_LINE2":"2 46586  53.0549 292.6458 0001418  81.8521 278.2629 15.06399246 77658","MEAN_MOTION_DDOT":"0.0000000000000","OBJECT_ID":"2020-070BG","REF_FRAME":"TEME","ARG_OF_PERICENTER":"81.8521","EPOCH":"2022-02-24T22:01:59.883744","MEAN_MOTION_DOT":"0.00002508","EPHEMERIS_TYPE":"0","TLE_LINE1":"1 46586U 20070BG  22055.91805421  .00002508  00000-0  18720-3 0  9998","RCS_SIZE":"LARGE","MEAN_MOTION":"15.06399246","GP_ID":"196900821","ELEMENT_SET_NO":"999","NORAD_CAT_ID":"46586","INCLINATION":"53.0549","LAUNCH_DATE":"2020-10-06","MEAN_ELEMENT_THEORY":"SGP4","ECCENTRICITY":"0.00014180","RA_OF_ASC_NODE":"292.6458","MEAN_ANOMALY":"278.2629"},{"OBJECT_NAME":"STARLINK-1746","SEMIMAJOR_AXIS":"6925.349","DECAY_DATE":null,"COUNTRY_CODE":"US","OBJECT_TYPE":"PAYLOAD","APOAPSIS":"548.368","BSTAR":"0.00013958000000","CLASSIFICATION_TYPE":"U","CENTER_NAME":"EARTH","SITE":"AFETR","PERIOD":"95.592","FILE":"3320325","PERIAPSIS":"546.060","GP_ID":"196902072","EPHEMERIS_TYPE":"0","MEAN_MOTION":"15.06399864","TLE_LINE1":"1 46588U 20070BJ  22055.89962535  .00001798  00000-0  13958-3 0  9995","RCS_SIZE":"LARGE","TLE_LINE2":"2 46588  53.0559 292.7183 0001667  63.2574 296.8585 15.06399864 77658","OBJECT_ID":"2020-070BJ","MEAN_MOTION_DDOT":"0.0000000000000","ARG_OF_PERICENTER":"63.2574","REF_FRAME":"TEME","TIME_SYSTEM":"UTC","REV_AT_EPOCH":"7765","EPOCH":"2022-02-24T21:35:27.630240","MEAN_MOTION_DOT":"0.00001798","RA_OF_ASC_NODE":"292.7183","ECCENTRICITY":"0.00016670","MEAN_ANOMALY":"296.8585","LAUNCH_DATE":"2020-10-06","ELEMENT_SET_NO":"999","INCLINATION":"53.0559","NORAD_CAT_ID":"46588","MEAN_ELEMENT_THEORY":"SGP4"},{"ECCENTRICITY":"0.00014970","RA_OF_ASC_NODE":"292.7533","MEAN_ANOMALY":"293.7153","NORAD_CAT_ID":"46589","INCLINATION":"53.0545","ELEMENT_SET_NO":"999","LAUNCH_DATE":"2020-10-06","MEAN_ELEMENT_THEORY":"SGP4","TLE_LINE1":"1 46589U 20070BK  22055.89226298  .00005250  00000-0  37103-3 0  9990","RCS_SIZE":"LARGE","MEAN_MOTION":"15.06407917","EPHEMERIS_TYPE":"0","GP_ID":"196901823","REV_AT_EPOCH":"7764","TIME_SYSTEM":"UTC","MEAN_MOTION_DDOT":"0.0000000000000","TLE_LINE2":"2 46589  53.0545 292.7533 0001497  66.3993 293.7153 15.06407917 77648","OBJECT_ID":"2020-070BK","REF_FRAME":"TEME","ARG_OF_PERICENTER":"66.3993","MEAN_MOTION_DOT":"0.00005250","EPOCH":"2022-02-24T21:24:51.521472","BSTAR":"0.00037103000000","CENTER_NAME":"EARTH","CLASSIFICATION_TYPE":"U","PERIOD":"95.592","SITE":"AFETR","FILE":"3320325","PERIAPSIS":"546.153","OBJECT_NAME":"STARLINK-1749","DECAY_DATE":null,"SEMIMAJOR_AXIS":"6925.324","COUNTRY_CODE":"US","APOAPSIS":"548.226","OBJECT_TYPE":"PAYLOAD"},{"MEAN_MOTION_DOT":"0.00253896","EPOCH":"2022-02-24T22:06:25.696800","TLE_LINE2":"2 46590  53.0549 180.7570 0002053  13.1520 346.9553 15.77727856 79222","ARG_OF_PERICENTER":"13.1520","MEAN_MOTION_DDOT":"0.0000000000000","OBJECT_ID":"2020-070BL","REF_FRAME":"TEME","REV_AT_EPOCH":"7922","TIME_SYSTEM":"UTC","GP_ID":"196900571","TLE_LINE1":"1 46590U 20070BL  22055.92113075  .00253896  00000-0  14438-2 0  9990","RCS_SIZE":"LARGE","MEAN_MOTION":"15.77727856","EPHEMERIS_TYPE":"0","MEAN_ELEMENT_THEORY":"SGP4","LAUNCH_DATE":"2020-10-06","NORAD_CAT_ID":"46590","INCLINATION":"53.0549","ELEMENT_SET_NO":"999","MEAN_ANOMALY":"346.9553","RA_OF_ASC_NODE":"180.7570","ECCENTRICITY":"0.00020530","APOAPSIS":"338.261","OBJECT_TYPE":"PAYLOAD","COUNTRY_CODE":"US","SEMIMAJOR_AXIS":"6715.017","DECAY_DATE":null,"OBJECT_NAME":"STARLINK-1754","FILE":"3320325","PERIAPSIS":"335.503","SITE":"AFETR","PERIOD":"91.270","CLASSIFICATION_TYPE":"U","CENTER_NAME":"EARTH","BSTAR":"0.00144380000000"},{"CLASSIFICATION_TYPE":"U","CENTER_NAME":"EARTH","BSTAR":"0.00007465900000","FILE":"3320325","PERIAPSIS":"546.276","SITE":"AFETR","PERIOD":"95.593","SEMIMAJOR_AXIS":"6925.398","DECAY_DATE":null,"OBJECT_NAME":"STARLINK-1755","APOAPSIS":"548.249","OBJECT_TYPE":"PAYLOAD","COUNTRY_CODE":"US","MEAN_ANOMALY":"288.4094","RA_OF_ASC_NODE":"292.8078","ECCENTRICITY":"0.00014240","MEAN_ELEMENT_THEORY":"SGP4","LAUNCH_DATE":"2020-10-06","INCLINATION":"53.0538","NORAD_CAT_ID":"46591","ELEMENT_SET_NO":"999","GP_ID":"196901321","RCS_SIZE":"LARGE","TLE_LINE1":"1 46591U 20070BM  22055.88120823  .00000830  00000-0  74659-4 0  9996","MEAN_MOTION":"15.06384024","EPHEMERIS_TYPE":"0","MEAN_MOTION_DOT":"0.00000830","EPOCH":"2022-02-24T21:08:56.391072","TLE_LINE2":"2 46591  53.0538 292.8078 0001424  71.7049 288.4094 15.06384024 76704","MEAN_MOTION_DDOT":"0.0000000000000","REF_FRAME":"TEME","OBJECT_ID":"2020-070BM","ARG_OF_PERICENTER":"71.7049","REV_AT_EPOCH":"7670","TIME_SYSTEM":"UTC"},{"MEAN_MOTION":"15.06397180","TLE_LINE1":"1 46671U 20073B   22055.62131110  .00001747  00000-0  13614-3 0  9992","RCS_SIZE":"LARGE","EPHEMERIS_TYPE":"0","GP_ID":"196900579","REV_AT_EPOCH":"7488","TIME_SYSTEM":"UTC","MEAN_MOTION_DDOT":"0.0000000000000","TLE_LINE2":"2 46671  53.0563  23.9702 0001985  54.7827 305.3348 15.06397180 74880","OBJECT_ID":"2020-073B","REF_FRAME":"TEME","ARG_OF_PERICENTER":"54.7827","MEAN_MOTION_DOT":"0.00001747","EPOCH":"2022-02-24T14:54:41.279040","ECCENTRICITY":"0.00019850","RA_OF_ASC_NODE":"23.9702","MEAN_ANOMALY":"305.3348","NORAD_CAT_ID":"46671","INCLINATION":"53.0563","ELEMENT_SET_NO":"999","LAUNCH_DATE":"2020-10-18","MEAN_ELEMENT_THEORY":"SGP4","OBJECT_NAME":"STARLINK-1715","DECAY_DATE":null,"SEMIMAJOR_AXIS":"6925.357","COUNTRY_CODE":"US","APOAPSIS":"548.597","OBJECT_TYPE":"PAYLOAD","BSTAR":"0.00013614000000","CLASSIFICATION_TYPE":"U","CENTER_NAME":"EARTH","PERIOD":"95.592","SITE":"AFETR","FILE":"3320325","PERIAPSIS":"545.848"},{"FILE":"3318573","PERIAPSIS":"546.134","PERIOD":"95.593","SITE":"AFETR","CENTER_NAME":"EARTH","CLASSIFICATION_TYPE":"U","BSTAR":"0.00004466200000","OBJECT_TYPE":"PAYLOAD","APOAPSIS":"548.388","COUNTRY_CODE":"US","DECAY_DATE":null,"SEMIMAJOR_AXIS":"6925.396","OBJECT_NAME":"STARLINK-1716","MEAN_ELEMENT_THEORY":"SGP4","ELEMENT_SET_NO":"999","INCLINATION":"53.0560","NORAD_CAT_ID":"46672","LAUNCH_DATE":"2020-10-18","MEAN_ANOMALY":"301.9842","ECCENTRICITY":"0.00016270","RA_OF_ASC_NODE":"20.2678","EPOCH":"2022-02-24T07:54:45.247968","MEAN_MOTION_DOT":"0.00000384","TIME_SYSTEM":"UTC","REV_AT_EPOCH":"7491","MEAN_MOTION_DDOT":"0.0000000000000","TLE_LINE2":"2 46672  53.0560  20.2678 0001627  58.1305 301.9842 15.06384584 74911","ARG_OF_PERICENTER":"58.1305","REF_FRAME":"TEME","OBJECT_ID":"2020-073C","EPHEMERIS_TYPE":"0","TLE_LINE1":"1 46672U 20073C   22055.32969037  .00000384  00000-0  44662-4 0  9991","RCS_SIZE":"LARGE","MEAN_MOTION":"15.06384584","GP_ID":"196841145"}];
